start=new Date('2022-07-10T00:00:00.000Z').valueOf();
sats=[{"MEAN_ANOMALY":"99.1672","FILE":"3510681","COUNTRY_CODE":"US","MEAN_MOTION":"14.96721322","RCS_SIZE":"LARGE","MEAN_MOTION_DDOT":"0.0000000000000","TLE_LINE1":"1 49137U 21082H   22190.69022077  .00002129  00000-0  19396-3 0  9999","ELEMENT_SET_NO":"999","NORAD_CAT_ID":"49137","TIME_SYSTEM":"UTC","OBJECT_TYPE":"PAYLOAD","OBJECT_NAME":"STARLINK-3055","SITE":"AFWTR","OBJECT_ID":"2021-082H","ECCENTRICITY":"0.00029760","MEAN_ELEMENT_THEORY":"SGP4","ARG_OF_PERICENTER":"260.9150","GP_ID":"207785152","EPOCH":"2022-07-09T16:33:55.074528","TLE_LINE2":"2 49137  70.0018  50.2391 0002976 260.9150  99.1672 14.96721322 45919","INCLINATION":"70.0018","PERIOD":"96.210","EPHEMERIS_TYPE":"0","APOAPSIS":"579.107","REF_FRAME":"TEME","PERIAPSIS":"574.967","CENTER_NAME":"EARTH","REV_AT_EPOCH":"4591","BSTAR":"0.00019396000000","DECAY_DATE":null,"RA_OF_ASC_NODE":"50.2391","MEAN_MOTION_DOT":"0.00002129","CLASSIFICATION_TYPE":"U","LAUNCH_DATE":"2021-09-14","SEMIMAJOR_AXIS":"6955.172"},{"ECCENTRICITY":"0.00031280","MEAN_ELEMENT_THEORY":"SGP4","OBJECT_NAME":"STARLINK-3058","OBJECT_TYPE":"PAYLOAD","TIME_SYSTEM":"UTC","SITE":"AFWTR","OBJECT_ID":"2021-082J","ELEMENT_SET_NO":"999","NORAD_CAT_ID":"49138","MEAN_MOTION":"14.98333717","COUNTRY_CODE":"US","FILE":"3510681","MEAN_ANOMALY":"103.3586","TLE_LINE1":"1 49138U 21082J   22190.64067936 -.00001210  00000-0 -93590-4 0  9999","MEAN_MOTION_DDOT":"0.0000000000000","RCS_SIZE":"LARGE","CLASSIFICATION_TYPE":"U","MEAN_MOTION_DOT":"-0.00001210","SEMIMAJOR_AXIS":"6950.181","LAUNCH_DATE":"2021-09-14","DECAY_DATE":null,"BSTAR":"-0.00009359000000","RA_OF_ASC_NODE":"70.6670","REF_FRAME":"TEME","APOAPSIS":"574.220","REV_AT_EPOCH":"4540","CENTER_NAME":"EARTH","PERIAPSIS":"569.872","GP_ID":"207785402","ARG_OF_PERICENTER":"256.7224","EPHEMERIS_TYPE":"0","PERIOD":"96.107","INCLINATION":"70.0006","TLE_LINE2":"2 49138  70.0006  70.6670 0003128 256.7224 103.3586 14.98333717 45403","EPOCH":"2022-07-09T15:22:34.696704"},{"NORAD_CAT_ID":"49139","ELEMENT_SET_NO":"999","TLE_LINE1":"1 49139U 21082K   22190.64716986 -.00000916  00000-0 -72019-4 0  9991","RCS_SIZE":"LARGE","MEAN_MOTION_DDOT":"0.0000000000000","COUNTRY_CODE":"US","MEAN_MOTION":"14.96720899","MEAN_ANOMALY":"90.1454","FILE":"3510548","MEAN_ELEMENT_THEORY":"SGP4","ECCENTRICITY":"0.00029460","OBJECT_ID":"2021-082K","SITE":"AFWTR","OBJECT_NAME":"STARLINK-3057","TIME_SYSTEM":"UTC","OBJECT_TYPE":"PAYLOAD","CENTER_NAME":"EARTH","REV_AT_EPOCH":"4640","PERIAPSIS":"574.989","REF_FRAME":"TEME","APOAPSIS":"579.087","EPHEMERIS_TYPE":"0","PERIOD":"96.210","EPOCH":"2022-07-09T15:31:55.475904","INCLINATION":"69.9982","TLE_LINE2":"2 49139  69.9982  30.0786 0002946 269.9367  90.1454 14.96720899 46400","GP_ID":"207708870","ARG_OF_PERICENTER":"269.9367","LAUNCH_DATE":"2021-09-14","SEMIMAJOR_AXIS":"6955.173","CLASSIFICATION_TYPE":"U","MEAN_MOTION_DOT":"-0.00000916","RA_OF_ASC_NODE":"30.0786","DECAY_DATE":null,"BSTAR":"-0.00007201900000"},{"APOAPSIS":"579.055","REF_FRAME":"TEME","PERIAPSIS":"575.004","CENTER_NAME":"EARTH","REV_AT_EPOCH":"4640","ARG_OF_PERICENTER":"266.8876","GP_ID":"207785905","EPOCH":"2022-07-09T15:17:53.794752","TLE_LINE2":"2 49140  69.9986  30.1022 0002912 266.8876  93.1949 14.96723662 46407","INCLINATION":"69.9986","EPHEMERIS_TYPE":"0","PERIOD":"96.210","MEAN_MOTION_DOT":"0.00000404","CLASSIFICATION_TYPE":"U","LAUNCH_DATE":"2021-09-14","SEMIMAJOR_AXIS":"6955.165","BSTAR":"0.00004328300000","DECAY_DATE":null,"RA_OF_ASC_NODE":"30.1022","ELEMENT_SET_NO":"999","NORAD_CAT_ID":"49140","MEAN_ANOMALY":"93.1949","FILE":"3510681","MEAN_MOTION":"14.96723662","COUNTRY_CODE":"US","RCS_SIZE":"LARGE","MEAN_MOTION_DDOT":"0.0000000000000","TLE_LINE1":"1 49140U 21082L   22190.63742818  .00000404  00000-0  43283-4 0  9996","ECCENTRICITY":"0.00029120","MEAN_ELEMENT_THEORY":"SGP4","TIME_SYSTEM":"UTC","OBJECT_TYPE":"PAYLOAD","OBJECT_NAME":"STARLINK-3118","OBJECT_ID":"2021-082L","SITE":"AFWTR"},{"RA_OF_ASC_NODE":"71.3453","BSTAR":"0.00008735500000","DECAY_DATE":null,"LAUNCH_DATE":"2021-09-14","SEMIMAJOR_AXIS":"6950.144","MEAN_MOTION_DOT":"0.00000950","CLASSIFICATION_TYPE":"U","EPOCH":"2022-07-09T08:51:09.297504","INCLINATION":"69.9989","TLE_LINE2":"2 49141  69.9989  71.3453 0002722 255.4403 104.6454 14.98345714 46561","PERIOD":"96.106","EPHEMERIS_TYPE":"0","ARG_OF_PERICENTER":"255.4403","GP_ID":"207733659","PERIAPSIS":"570.117","CENTER_NAME":"EARTH","REV_AT_EPOCH":"4656","REF_FRAME":"TEME","APOAPSIS":"573.901","OBJECT_ID":"2021-082M","SITE":"AFWTR","TIME_SYSTEM":"UTC","OBJECT_TYPE":"PAYLOAD","OBJECT_NAME":"STARLINK-3093","MEAN_ELEMENT_THEORY":"SGP4","ECCENTRICITY":"0.00027220","RCS_SIZE":"LARGE","MEAN_MOTION_DDOT":"0.0000000000000","TLE_LINE1":"1 49141U 21082M   22190.36885761  .00000950  00000-0  87355-4 0  9996","MEAN_ANOMALY":"104.6454","FILE":"3510582","COUNTRY_CODE":"US","MEAN_MOTION":"14.98345714","NORAD_CAT_ID":"49141","ELEMENT_SET_NO":"999"},{"OBJECT_NAME":"STARLINK-3042","TIME_SYSTEM":"UTC","OBJECT_TYPE":"PAYLOAD","SITE":"AFWTR","OBJECT_ID":"2021-082N","ECCENTRICITY":"0.00029660","MEAN_ELEMENT_THEORY":"SGP4","COUNTRY_CODE":"US","MEAN_MOTION":"14.96729101","MEAN_ANOMALY":"96.8539","FILE":"3510681","TLE_LINE1":"1 49142U 21082N   22190.69937606  .00001458  00000-0  13528-3 0  9993","RCS_SIZE":"LARGE","MEAN_MOTION_DDOT":"0.0000000000000","ELEMENT_SET_NO":"999","NORAD_CAT_ID":"49142","DECAY_DATE":null,"BSTAR":"0.00013528000000","RA_OF_ASC_NODE":"29.9577","CLASSIFICATION_TYPE":"U","MEAN_MOTION_DOT":"0.00001458","LAUNCH_DATE":"2021-09-14","SEMIMAJOR_AXIS":"6955.148","GP_ID":"207784903","ARG_OF_PERICENTER":"263.2282","EPHEMERIS_TYPE":"0","PERIOD":"96.210","EPOCH":"2022-07-09T16:47:06.091584","TLE_LINE2":"2 49142  70.0000  29.9577 0002966 263.2282  96.8539 14.96729101 46411","INCLINATION":"70.0000","REF_FRAME":"TEME","APOAPSIS":"579.076","CENTER_NAME":"EARTH","REV_AT_EPOCH":"4641","PERIAPSIS":"574.950"},{"GP_ID":"207786154","ARG_OF_PERICENTER":"256.5435","PERIOD":"96.211","EPHEMERIS_TYPE":"0","TLE_LINE2":"2 49143  69.9991  50.2494 0002964 256.5435 103.5393 14.96704081 47028","INCLINATION":"69.9991","EPOCH":"2022-07-09T16:27:00.432288","REF_FRAME":"TEME","APOAPSIS":"579.152","REV_AT_EPOCH":"4702","CENTER_NAME":"EARTH","PERIAPSIS":"575.029","DECAY_DATE":null,"BSTAR":"-0.00014221000000","RA_OF_ASC_NODE":"50.2494","CLASSIFICATION_TYPE":"U","MEAN_MOTION_DOT":"-0.00001718","LAUNCH_DATE":"2021-09-14","SEMIMAJOR_AXIS":"6955.225","COUNTRY_CODE":"US","MEAN_MOTION":"14.96704081","FILE":"3510681","MEAN_ANOMALY":"103.5393","TLE_LINE1":"1 49143U 21082P   22190.68542167 -.00001718  00000-0 -14221-3 0  9999","MEAN_MOTION_DDOT":"0.0000000000000","RCS_SIZE":"LARGE","ELEMENT_SET_NO":"999","NORAD_CAT_ID":"49143","OBJECT_NAME":"STARLINK-3109","OBJECT_TYPE":"PAYLOAD","TIME_SYSTEM":"UTC","SITE":"AFWTR","OBJECT_ID":"2021-082P","ECCENTRICITY":"0.00029640","MEAN_ELEMENT_THEORY":"SGP4"},{"MEAN_MOTION_DDOT":"0.0000000000000","RCS_SIZE":"LARGE","TLE_LINE1":"1 49144U 21082Q   22190.69789659 -.00001060  00000-0 -81029-4 0  9991","FILE":"3510681","MEAN_ANOMALY":"97.7930","MEAN_MOTION":"14.98336938","COUNTRY_CODE":"US","NORAD_CAT_ID":"49144","ELEMENT_SET_NO":"999","SITE":"AFWTR","OBJECT_ID":"2021-082Q","OBJECT_TYPE":"PAYLOAD","TIME_SYSTEM":"UTC","OBJECT_NAME":"STARLINK-3100","MEAN_ELEMENT_THEORY":"SGP4","ECCENTRICITY":"0.00027330","INCLINATION":"70.0000","TLE_LINE2":"2 49144  70.0000  70.5327 0002733 262.2919  97.7930 14.98336938 45414","EPOCH":"2022-07-09T16:44:58.265376","PERIOD":"96.107","EPHEMERIS_TYPE":"0","ARG_OF_PERICENTER":"262.2919","GP_ID":"207786405","PERIAPSIS":"570.137","REV_AT_EPOCH":"4541","CENTER_NAME":"EARTH","REF_FRAME":"TEME","APOAPSIS":"573.936","RA_OF_ASC_NODE":"70.5327","BSTAR":"-0.00008102900000","DECAY_DATE":null,"SEMIMAJOR_AXIS":"6950.171","LAUNCH_DATE":"2021-09-14","MEAN_MOTION_DOT":"-0.00001060","CLASSIFICATION_TYPE":"U"},{"RCS_SIZE":"LARGE","MEAN_MOTION_DDOT":"0.0000000000000","TLE_LINE1":"1 49145U 21082R   22190.68674240 -.00000153  00000-0 -53270-5 0  9990","MEAN_ANOMALY":"99.7993","FILE":"3510681","MEAN_MOTION":"14.96722327","COUNTRY_CODE":"US","NORAD_CAT_ID":"49145","ELEMENT_SET_NO":"999","SITE":"AFWTR","OBJECT_ID":"2021-082R","TIME_SYSTEM":"UTC","OBJECT_TYPE":"PAYLOAD","OBJECT_NAME":"STARLINK-3119","MEAN_ELEMENT_THEORY":"SGP4","ECCENTRICITY":"0.00031500","EPOCH":"2022-07-09T16:28:54.543360","TLE_LINE2":"2 49145  69.9967  30.0002 0003150 260.2809  99.7993 14.96722327 46405","INCLINATION":"69.9967","EPHEMERIS_TYPE":"0","PERIOD":"96.210","ARG_OF_PERICENTER":"260.2809","GP_ID":"207785153","PERIAPSIS":"574.843","CENTER_NAME":"EARTH","REV_AT_EPOCH":"4640","APOAPSIS":"579.225","REF_FRAME":"TEME","RA_OF_ASC_NODE":"30.0002","BSTAR":"-0.00000532700000","DECAY_DATE":null,"SEMIMAJOR_AXIS":"6955.169","LAUNCH_DATE":"2021-09-14","MEAN_MOTION_DOT":"-0.00000153","CLASSIFICATION_TYPE":"U"},{"MEAN_ANOMALY":"97.2038","FILE":"3510681","COUNTRY_CODE":"US","MEAN_MOTION":"14.96719564","RCS_SIZE":"LARGE","MEAN_MOTION_DDOT":"0.0000000000000","TLE_LINE1":"1 49146U 21082S   22190.68055021  .00000817  00000-0  79341-4 0  9992","ELEMENT_SET_NO":"999","NORAD_CAT_ID":"49146","TIME_SYSTEM":"UTC","OBJECT_TYPE":"PAYLOAD","OBJECT_NAME":"STARLINK-3116","SITE":"AFWTR","OBJECT_ID":"2021-082S","ECCENTRICITY":"0.00028040","MEAN_ELEMENT_THEORY":"SGP4","ARG_OF_PERICENTER":"262.8801","GP_ID":"207785403","EPOCH":"2022-07-09T16:19:59.538144","INCLINATION":"70.0003","TLE_LINE2":"2 49146  70.0003  50.2623 0002804 262.8801  97.2038 14.96719564 47063","EPHEMERIS_TYPE":"0","PERIOD":"96.210","APOAPSIS":"578.993","REF_FRAME":"TEME","PERIAPSIS":"575.092","CENTER_NAME":"EARTH","REV_AT_EPOCH":"4706","BSTAR":"0.00007934100000","DECAY_DATE":null,"RA_OF_ASC_NODE":"50.2623","MEAN_MOTION_DOT":"0.00000817","CLASSIFICATION_TYPE":"U","LAUNCH_DATE":"2021-09-14","SEMIMAJOR_AXIS":"6955.177"}];
